NOAA 15                 
1 25338U 98030A   23049.46015384  .00000343  00000+0  16117-3 0  9998
2 25338  98.6206  80.4692 0009411 303.2543  56.7734 14.26246693288337
DMSP 5D-3 F15 (USA 147) 
1 25991U 99067A   23049.50602942  .00000437  00000+0  24192-3 0  9997
2 25991  99.0690  50.4949 0009594 206.6334 326.2197 14.16657020198621
DMSP 5D-3 F16 (USA 172) 
1 28054U 03048A   23049.48830410  .00000353  00000+0  21045-3 0  9995
2 28054  99.0077  46.7983 0007104 350.6540 161.7385 14.13751325997788
NOAA 18                 
1 28654U 05018A   23049.45087522  .00000347  00000+0  21055-3 0  9999
2 28654  98.9215 124.3741 0014021   0.0656   0.0516 14.12865740914800
METEOSAT-9 (MSG-2)      
1 28912U 05049B   23049.21639292  .00000119  00000+0  00000+0 0  9991
2 28912   6.5749  64.6358 0001503 194.5862  12.2935  1.00273101 62893
EWS-G1 (GOES 13)        
1 29155U 06018A   23048.86089741  .00000032  00000+0  00000+0 0  9990
2 29155   1.2159  92.4618 0003674 174.5549 251.6470  1.00271481 31190
DMSP 5D-3 F17 (USA 191) 
1 29522U 06050A   23049.44436632  .00000356  00000+0  20942-3 0  9994
2 29522  98.7600  64.7850 0008799 281.9982  78.0205 14.14186599840679
FENGYUN 3A              
1 32958U 08026A   23049.31545154  .00000328  00000+0  17770-3 0  9996
2 32958  98.5396   7.3492 0009501  38.4750 321.7102 14.18806266763190
FENGYUN 2E              
1 33463U 08066A   23049.03834115 -.00000212  00000+0  00000+0 0  9996
2 33463   6.4499  63.8041 0002228 316.3725 227.9406  1.00275469 51905
NOAA 19                 
1 33591U 09005A   23049.40980155  .00000313  00000+0  19350-3 0  9992
2 33591  99.1181  93.3472 0013420 213.8091 146.2225 14.12690336723171
GOES 14                 
1 35491U 09033A   23048.97058795 -.00000077  00000+0  00000+0 0  9997
2 35491   0.0611 149.6755 0004136 248.7822 350.4730  1.00274871 49977
METEOR-M 1              
1 35865U 09049A   23049.32229332  .00000389  00000+0  19380-3 0  9996
2 35865  98.5645  17.3029 0001487 205.2445 154.8661 14.22427179696630
DMSP 5D-3 F18 (USA 210) 
1 35951U 09057A   23049.44356757  .00000521  00000+0  29855-3 0  9992
2 35951  98.7545  28.1604 0012202 104.5846 255.6681 14.13661335687860
GOES 15                 
1 36411U 10008A   23048.53630031  .00000049  00000+0  00000+0 0  9993
2 36411   0.0617  90.3229 0001831  78.9869  42.7724  1.00274367 47474
COMS 1                  
1 36744U 10032A   23049.37625328 -.00000354  00000+0  00000+0 0  9995
2 36744   1.6874  90.8081 0000735 243.6791  77.1757  1.00272705 46474
FENGYUN 3B              
1 37214U 10059A   23049.33887950  .00000259  00000+0  15935-3 0  9994
2 37214  99.0913  64.6564 0022603  24.0266 336.1960 14.14298797635716
SUOMI NPP               
1 37849U 11061A   23049.48652536  .00000205  00000+0  11805-3 0  9991
2 37849  98.7585 349.9090 0000898  72.4010  51.8845 14.19552163586094
FENGYUN 2F              
1 38049U 12002A   23048.85374264 -.00000365  00000+0  00000+0 0  9998
2 38049   4.3919  77.7360 0000417 195.5918 293.3133  1.00281971 40694
METEOSAT-10 (MSG-3)     
1 38552U 12035B   23049.06568483  .00000052  00000+0  00000+0 0  9997
2 38552   1.9403  52.3254 0001442 274.9781 213.2807  1.00270533 39031
METOP-B                 
1 38771U 12049A   23049.49327760  .00000278  00000+0  14697-3 0  9994
2 38771  98.6958 110.7641 0001348  76.6916 344.7031 14.21487654540681
FENGYUN 3C              
1 39260U 13052A   23049.32142074  .00000218  00000+0  13114-3 0  9995
2 39260  98.4373  69.7373 0010038 288.5123  71.4970 14.15991820486716
METEOR-M 2              
1 40069U 14037A   23049.32364296  .00000162  00000+0  94044-4 0  9990
2 40069  98.4265  60.8047 0005335 339.4351  20.6609 14.20746394446775
HIMAWARI-8              
1 40267U 14060A   23048.87827059 -.00000283  00000+0  00000+0 0  9995
2 40267   0.0234 214.3072 0000944 138.0888 252.0125  1.00270886 30576
FENGYUN 2G              
1 40367U 14090A   23048.83947791 -.00000307  00000+0  00000+0 0  9998
2 40367   2.5508  86.9627 0001171 287.5936 174.5638  1.00259904 29814
METEOSAT-11 (MSG-4)     
1 40732U 15034A   23048.84886866 -.00000008  00000+0  00000+0 0  9997
2 40732   0.4687  13.1704 0000213 322.4607 117.9958  1.00267933 27830
ELEKTRO-L 2             
1 41105U 15074A   23047.41147126 -.00000117  00000+0  00000+0 0  9998
2 41105   3.6013  85.2792 0001868 180.7658  13.7546  1.00272392 26311
HIMAWARI-9              
1 41836U 16064A   23048.94844808 -.00000282  00000+0  00000+0 0  9992
2 41836   0.0028  54.1755 0001145 312.1719 263.4729  1.00272756 23116
GOES 16                 
1 41866U 16071A   23049.11726571 -.00000256  00000+0  00000+0 0  9990
2 41866   0.0860 276.4305 0000663  96.6360 101.7456  1.00269859 22922
FENGYUN 4A              
1 41882U 16077A   23049.57549111 -.00000340  00000+0  00000+0 0  9991
2 41882   0.1441  82.1614 0005002 349.4581  28.3833  1.00276631 22803
CYGFM05                 
1 41884U 16078A   23049.49173663  .00006699  00000+0  31889-3 0  9995
2 41884  34.9560 107.6288 0014305 139.3186 220.8597 15.18384448342277
CYGFM04                 
1 41885U 16078B   23048.46878167  .00008865  00000+0  41471-3 0  9998
2 41885  34.9495 101.8368 0012933 149.6530 210.4933 15.18946717342072
CYGFM02                 
1 41886U 16078C   23048.84762345  .00007953  00000+0  37168-3 0  9996
2 41886  34.9581 101.7548 0013577 146.4454 213.7120 15.18992156342288
CYGFM01                 
1 41887U 16078D   23048.86833034  .00007638  00000+0  36555-3 0  9992
2 41887  34.9524 114.3224 0014590 132.1221 228.0733 15.18166096342147
CYGFM08                 
1 41888U 16078E   23049.43158426  .00006881  00000+0  32465-3 0  9997
2 41888  34.9493 102.2528 0014073 151.6913 208.4566 15.18689030342285
CYGFM07                 
1 41890U 16078G   23049.47786056  .00007034  00000+0  32806-3 0  9990
2 41890  34.9512  95.3254 0012647 157.1929 202.9347 15.19095632342388
CYGFM03                 
1 41891U 16078H   23049.41104457  .00007076  00000+0  33153-3 0  9996
2 41891  34.9545  96.2809 0011972 154.7963 205.3336 15.18945345342369
FENGYUN 3D              
1 43010U 17072A   23049.33721255  .00000328  00000+0  17807-3 0  9999
2 43010  98.8466 358.0573 0000746 337.1674  22.9476 14.19147423272647
NOAA 20                 
1 43013U 17073A   23049.42576415  .00000204  00000+0  11772-3 0  9997
2 43013  98.7423 349.4102 0001538  82.6584 277.4767 14.19526932272125
GOES 17                 
1 43226U 18022A   23048.89956199 -.00000098  00000+0  00000+0 0  9999
2 43226   0.0166  94.8304 0001174 289.2992 342.6062  1.00271080 18230
FENGYUN 2H              
1 43491U 18050A   23048.89016387 -.00000137  00000+0  00000+0 0  9994
2 43491   1.7703  92.9300 0001993  58.5350  35.9077  1.00269523 17256
METOP-C                 
1 43689U 18087A   23049.44758756  .00000286  00000+0  15089-3 0  9999
2 43689  98.7004 110.7954 0003817  60.4076 299.7481 14.21491586222253
GEO-KOMPSAT-2A          
1 43823U 18100A   23048.22886983 -.00000348  00000+0  00000+0 0  9997
2 43823   0.0193  92.3434 0001335 323.6135 301.6075  1.00269832 15420
METEOR-M2 2             
1 44387U 19038A   23049.33534832  .00000188  00000+0  10164-3 0  9997
2 44387  98.7589  13.5800 0000491 338.5780  21.5381 14.23751934188397
FENGYUN 3E              
1 49008U 21062A   23049.32941177  .00000123  00000+0  78746-4 0  9995
2 49008  98.7199  52.4956 0002194  31.0354 329.0960 14.19760919 84209
GOES 18                 
1 51850U 22021A   23041.35604277  .00000108  00000+0  00000+0 0  9997
2 51850   0.0046 150.5037 0000298 204.9608 135.8600  1.00272295  3521
NOAA 21 (JPSS-2)        
1 54234U 22150A   23049.09089010  .00000262  00000+0  14503-3 0  9998
2 54234  98.7062 348.9756 0001251  80.0804 280.0514 14.19546123 14150
METEOSAT-12             
1 54743U 22170C   23049.27827997 -.00000041  00000+0  00000+0 0  9998
2 54743   0.8521 300.7010 0002737 109.3615 194.4706  1.00270797   796
